STARLINK-36212          
1 67216U 25304AA  26004.58335648 -.01788047  00000+0 -31061-1 0  9998
2 67216  69.9994 343.0214 0003042 276.7971 280.2762 15.53911862  4142
STARLINK-36216          
1 67217U 25304AB  26004.58335648 -.01800817  00000+0 -31302-1 0  9997
2 67217  69.9993 343.0192 0003090 276.2576 282.7320 15.53919084  4147
STARLINK-36211          
1 67218U 25304AC  26004.58335648 -.01802069  00000+0 -31325-1 0  9994
2 67218  69.9993 343.0169 0003102 274.5741 286.3321 15.53919724  4110
DISKSAT A               
1 67219U 25305A   25354.38090451  .00000510  00000+0  50887-4 0  9996
2 67219  45.0057 310.0654 0003912 276.1097  83.9332 15.05762698   337
DISKSAT B               
1 67220U 25305B   25354.24828476  .00000511  00000+0  51086-4 0  9992
2 67220  45.0108 310.7693 0004681 270.4757  89.5581 15.05702195   312
DISKSAT C               
1 67221U 25305C   25354.31471422  .00001256  00000+0  10191-3 0  9994
2 67221  45.0067 310.4143 0004387 282.7791  77.2594 15.05653670   312
DISKSAT D               
1 67222U 25305D   25354.31483363  .00001252  00000+0  10184-3 0  9990
2 67222  45.0056 310.4150 0004477 287.6101  72.4284 15.05567005   317
ELECTRON KICK STAGE R/B 
1 67223U 25305E   25357.29083347  .00018707  00000+0  18366-3 0  9992
2 67223  44.9877 292.9264 0177490 166.6089 193.9601 15.48545747   794
ELECTRON R/B            
1 67224U 25305F   26004.31246618  .00819341  99809-5  27802-3 0  9997
2 67224  44.9966 220.2123 0110431  18.8901 341.6063 16.11003637  2700
TJS-23                  
1 67226U 25306A   26004.05376852  .00000025  00000+0  00000+0 0  9992
2 67226   5.9617 298.3416 0001022 288.2335  71.9829  1.00276266   244
CZ-5 R/B                
1 67227U 25306B   26002.23975566  .00003994  00000+0  95745-3 0  9990
2 67227  16.3556 294.8442 7582788 186.5720 149.5922  1.92311739   265
QPS-SAR-15              
1 67228U 25307A   26004.50821159  .00007230  00000+0  62837-3 0  9995
2 67228  42.0077  45.6549 0008987 354.8185   5.2545 14.97257565  2134
